[
    {
        "Altitude(m)": 706476.5208417061,
        "Argument of Periapsis(deg)": 0.0034170363559881197,
        "Eccentricity": 0.0,
        "Inclination(deg)": 45.0,
        "Latitude(deg)": 41.42854637968852,
        "Longitude(deg)": 91.16259863533821,
        "Mean Anomaly(deg)": 68.91446499424426,
        "RAAN(deg)": 129.99677441756256,
        "Satellite Name": "Constellation 1 576",
        "Satellite Number": 576,
        "Semi-Major Axis(m)": 7083131.272910544,
        "Time(s)": 57
    },
    {
        "Altitude(m)": 706481.0232050805,
        "Argument of Periapsis(deg)": 0.003476984362233526,
        "Eccentricity": 0.0,
        "Inclination(deg)": 45.0,
        "Latitude(deg)": 41.44914166057069,
        "Longitude(deg)": 91.23453662621378,
        "Mean Anomaly(deg)": 68.97516613449413,
        "RAAN(deg)": 129.99671782839698,
        "Satellite Name": "Constellation 1 576",
        "Satellite Number": 576,
        "Semi-Major Axis(m)": 7083131.272910544,
        "Time(s)": 58
    },
    {
        "Altitude(m)": 706485.5158181817,
        "Argument of Periapsis(deg)": 0.003536932368478932,
        "Eccentricity": 0.0,
        "Inclination(deg)": 45.0,
        "Latitude(deg)": 41.46968658393119,
        "Longitude(deg)": 91.30652247071072,
        "Mean Anomaly(deg)": 69.03586727474405,
        "RAAN(deg)": 129.9966612392314,
        "Satellite Name": "Constellation 1 576",
        "Satellite Number": 576,
        "Semi-Major Axis(m)": 7083131.272910544,
        "Time(s)": 59
    },
    {
        "Altitude(m)": 706489.9986541218,
        "Argument of Periapsis(deg)": 0.003596880374724337,
        "Eccentricity": 0.0,
        "Inclination(deg)": 45.0,
        "Latitude(deg)": 41.490181082307124,
        "Longitude(deg)": 91.37855645237894,
        "Mean Anomaly(deg)": 69.09656841499394,
        "RAAN(deg)": 129.99660465006582,
        "Satellite Name": "Constellation 1 576",
        "Satellite Number": 576,
        "Semi-Major Axis(m)": 7083131.272910544,
        "Time(s)": 60
    },
    {
        "Altitude(m)": 706494.4716860601,
        "Argument of Periapsis(deg)": 0.0036568283809697427,
        "Eccentricity": 0.0,
        "Inclination(deg)": 45.0,
        "Latitude(deg)": 41.51062508829092,
        "Longitude(deg)": 91.45063834994693,
        "Mean Anomaly(deg)": 69.15726955524384,
        "RAAN(deg)": 129.99654806090027,
        "Satellite Name": "Constellation 1 576",
        "Satellite Number": 576,
        "Semi-Major Axis(m)": 7083131.272910544,
        "Time(s)": 61
    },
    {
        "Altitude(m)": 706498.9348872312,
        "Argument of Periapsis(deg)": 0.003716776387215149,
        "Eccentricity": 0.0,
        "Inclination(deg)": 45.0,
        "Latitude(deg)": 41.53101853453111,
        "Longitude(deg)": 91.52276810970972,
        "Mean Anomaly(deg)": 69.21797069549373,
        "RAAN(deg)": 129.99649147173471,
        "Satellite Name": "Constellation 1 576",
        "Satellite Number": 576,
        "Semi-Major Axis(m)": 7083131.272910544,
        "Time(s)": 62
    },
    {
        "Altitude(m)": 706503.3882309302,
        "Argument of Periapsis(deg)": 0.003776724393460554,
        "Eccentricity": 0.0,
        "Inclination(deg)": 45.0,
        "Latitude(deg)": 41.551361353733164,
        "Longitude(deg)": 91.59494567743073,
        "Mean Anomaly(deg)": 69.27867183574361,
        "RAAN(deg)": 129.99643488256913,
        "Satellite Name": "Constellation 1 576",
        "Satellite Number": 576,
        "Semi-Major Axis(m)": 7083131.272910544,
        "Time(s)": 63
    },
    {
        "Altitude(m)": 706507.8316905051,
        "Argument of Periapsis(deg)": 0.003836672399705959,
        "Eccentricity": 0.0,
        "Inclination(deg)": 45.0,
        "Latitude(deg)": 41.571653478660345,
        "Longitude(deg)": 91.66717099834129,
        "Mean Anomaly(deg)": 69.33937297599353,
        "RAAN(deg)": 129.99637829340355,
        "Satellite Name": "Constellation 1 576",
        "Satellite Number": 576,
        "Semi-Major Axis(m)": 7083131.272910544,
        "Time(s)": 64
    },
    {
        "Altitude(m)": 706512.2652393843,
        "Argument of Periapsis(deg)": 0.003896620405951365,
        "Eccentricity": 0.0,
        "Inclination(deg)": 45.0,
        "Latitude(deg)": 41.5918948421344,
        "Longitude(deg)": 91.73944401713919,
        "Mean Anomaly(deg)": 69.40007411624342,
        "RAAN(deg)": 129.996321704238,
        "Satellite Name": "Constellation 1 576",
        "Satellite Number": 576,
        "Semi-Major Axis(m)": 7083131.272910544,
        "Time(s)": 65
    },
    {
        "Altitude(m)": 706516.6888510463,
        "Argument of Periapsis(deg)": 0.003956568412196771,
        "Eccentricity": 0.0,
        "Inclination(deg)": 45.0,
        "Latitude(deg)": 41.612085377036514,
        "Longitude(deg)": 91.81176467798826,
        "Mean Anomaly(deg)": 69.46077525649335,
        "RAAN(deg)": 129.99626511507242,
        "Satellite Name": "Constellation 1 576",
        "Satellite Number": 576,
        "Semi-Major Axis(m)": 7083131.272910544,
        "Time(s)": 66
    },
    {
        "Altitude(m)": 706521.102499038,
        "Argument of Periapsis(deg)": 0.004016516418442176,
        "Eccentricity": 0.0,
        "Inclination(deg)": 45.0,
        "Latitude(deg)": 41.63222501630794,
        "Longitude(deg)": 91.88413275641999,
        "Mean Anomaly(deg)": 69.52147639674324,
        "RAAN(deg)": 129.99620852590687,
        "Satellite Name": "Constellation 1 576",
        "Satellite Number": 576,
        "Semi-Major Axis(m)": 7083131.272910544,
        "Time(s)": 67
    },
    {
        "Altitude(m)": 706525.5061569689,
        "Argument of Periapsis(deg)": 0.004076464424687581,
        "Eccentricity": 0.0,
        "Inclination(deg)": 45.0,
        "Latitude(deg)": 41.65231369295101,
        "Longitude(deg)": 91.95654853172208,
        "Mean Anomaly(deg)": 69.58217753699313,
        "RAAN(deg)": 129.99615193674126,
        "Satellite Name": "Constellation 1 576",
        "Satellite Number": 576,
        "Semi-Major Axis(m)": 7083131.272910544,
        "Time(s)": 68
    },
    {
        "Altitude(m)": 706529.8997985165,
        "Argument of Periapsis(deg)": 0.004136412430932987,
        "Eccentricity": 0.0,
        "Inclination(deg)": 45.0,
        "Latitude(deg)": 41.67235134002983,
        "Longitude(deg)": 92.02901177835373,
        "Mean Anomaly(deg)": 69.642878677243,
        "RAAN(deg)": 129.9960953475757,
        "Satellite Name": "Constellation 1 576",
        "Satellite Number": 576,
        "Semi-Major Axis(m)": 7083131.272910544,
        "Time(s)": 69
    },
    {
        "Altitude(m)": 706534.2833974198,
        "Argument of Periapsis(deg)": 0.004196360437178394,
        "Eccentricity": 0.0,
        "Inclination(deg)": 45.0,
        "Latitude(deg)": 41.69233789067104,
        "Longitude(deg)": 92.10152243833389,
        "Mean Anomaly(deg)": 69.70357981749292,
        "RAAN(deg)": 129.99603875841015,
        "Satellite Name": "Constellation 1 576",
        "Satellite Number": 576,
        "Semi-Major Axis(m)": 7083131.272910544,
        "Time(s)": 70
    },
    {
        "Altitude(m)": 706538.6569274756,
        "Argument of Periapsis(deg)": 0.004256308443423799,
        "Eccentricity": 0.0,
        "Inclination(deg)": 45.0,
        "Latitude(deg)": 41.712273278064814,
        "Longitude(deg)": 92.17408045314342,
        "Mean Anomaly(deg)": 69.76428095774281,
        "RAAN(deg)": 129.99598216924457,
        "Satellite Name": "Constellation 1 576",
        "Satellite Number": 576,
        "Semi-Major Axis(m)": 7083131.272910544,
        "Time(s)": 71
    },
    {
        "Altitude(m)": 706543.0203625571,
        "Argument of Periapsis(deg)": 0.004316256449669204,
        "Eccentricity": 0.0,
        "Inclination(deg)": 45.0,
        "Latitude(deg)": 41.7321574354655,
        "Longitude(deg)": 92.24668576372413,
        "Mean Anomaly(deg)": 69.82498209799273,
        "RAAN(deg)": 129.99592558007902,
        "Satellite Name": "Constellation 1 576",
        "Satellite Number": 576,
        "Semi-Major Axis(m)": 7083131.272910544,
        "Time(s)": 72
    },
    {
        "Altitude(m)": 706547.3736765872,
        "Argument of Periapsis(deg)": 0.00437620445591461,
        "Eccentricity": 0.0,
        "Inclination(deg)": 45.0,
        "Latitude(deg)": 41.751990296192616,
        "Longitude(deg)": 92.31933831047799,
        "Mean Anomaly(deg)": 69.88568323824263,
        "RAAN(deg)": 129.99586899091344,
        "Satellite Name": "Constellation 1 576",
        "Satellite Number": 576,
        "Semi-Major Axis(m)": 7083131.272910544,
        "Time(s)": 73
    },
    {
        "Altitude(m)": 706551.7168435676,
        "Argument of Periapsis(deg)": 0.004436152462160016,
        "Eccentricity": 0.0,
        "Inclination(deg)": 45.0,
        "Latitude(deg)": 41.77177179363146,
        "Longitude(deg)": 92.39203786516894,
        "Mean Anomaly(deg)": 69.94638437849252,
        "RAAN(deg)": 129.99581240174786,
        "Satellite Name": "Constellation 1 576",
        "Satellite Number": 576,
        "Semi-Major Axis(m)": 7083131.272910544,
        "Time(s)": 74
    },
    {
        "Altitude(m)": 706556.0498375571,
        "Argument of Periapsis(deg)": 0.0044961004684054215,
        "Eccentricity": 0.0,
        "Inclination(deg)": 45.0,
        "Latitude(deg)": 41.791501861234174,
        "Longitude(deg)": 92.46478470331179,
        "Mean Anomaly(deg)": 70.00708551874243,
        "RAAN(deg)": 129.9957558125823,
        "Satellite Name": "Constellation 1 576",
        "Satellite Number": 576,
        "Semi-Major Axis(m)": 7083131.272910544,
        "Time(s)": 75
    }
]